CCSDS_OMM_VERS,COMMENT,CREATION_DATE,ORIGINATOR,OBJECT_NAME,OBJECT_ID,CENTER_NAME,REF_FRAME,TIME_SYSTEM,MEAN_ELEMENT_THEORY,EPOCH,MEAN_MOTION,ECCENTRICITY,INCLINATION,RA_OF_ASC_NODE,ARG_OF_PERICENTER,MEAN_ANOMALY,EPHEMERIS_TYPE,CLASSIFICATION_TYPE,NORAD_CAT_ID,ELEMENT_SET_NO,REV_AT_EPOCH,BSTAR,MEAN_MOTION_DOT,MEAN_MOTION_DDOT,SEMIMAJOR_AXIS,PERIOD,APOAPSIS,PERIAPSIS,OBJECT_TYPE,RCS_SIZE,COUNTRY_CODE,LAUNCH_DATE,SITE,DECAY_DATE,FILE,GP_ID,TLE_LINE0,TLE_LINE1,TLE_LINE2
"2.0","GENERATED VIA SPACE-TRACK.ORG API","2020-10-21T19:12:42","18 SPCS","IRIDIUM 153","2017-083J","EARTH","TEME","UTC","SGP4","2020-10-20T10:45:22.381344","14.34215680","0.00017630","86.3956","73.7193","66.6258","293.5123","0","U","43078","999","14919","0.00003226900000","0.00000110","0.0000000000000","7155.811","100.403","778.937","776.414","PAYLOAD","LARGE","US","2017-12-23","AFWTR","","2857849","163966394","0 IRIDIUM 153","1 43078U 17083J   20294.44817571 +.00000110 +00000-0 +32269-4 0  9993","2 43078 086.3956 073.7193 0001763 066.6258 293.5123 14.34215680149194"
"2.0","GENERATED VIA SPACE-TRACK.ORG API","2020-10-20T04:05:29","18 SPCS","COSMOS 1867","1987-060A","EARTH","TEME","UTC","SGP4","2020-10-19T20:18:19.873440","14.31115302","0.00149670","65.0118","52.5909","280.0800","79.8596","0","U","18187","999","73867","0.00000308960000","-0.00000092","0.0000000000000","7166.142","100.620","798.732","777.281","PAYLOAD","LARGE","CIS","1987-07-10","TTMTR","","2857063","163817769","0 COSMOS 1867","1 18187U 87060A   20293.84606335 -.00000092 +00000-0 +30896-5 0  9990","2 18187 065.0118 052.5909 0014967 280.0800 079.8596 14.31115302738679"
"2.0","GENERATED VIA SPACE-TRACK.ORG API","2020-10-20T04:05:29","18 SPCS","IRIDIUM 153","2017-083J","EARTH","TEME","UTC","SGP4","2020-10-19T11:18:50.264640","14.34215401","0.00018060","86.3954","74.1277","66.3037","293.8348","0","U","43078","999","14905","0.00001488400000","0.00000061","0.0000000000000","7155.811","100.403","778.969","776.384","PAYLOAD","LARGE","US","2017-12-23","AFWTR","","2857063","163830500","0 IRIDIUM 153","1 43078U 17083J   20293.47141510 +.00000061 +00000-0 +14884-4 0  9996","2 43078 086.3954 074.1277 0001806 066.3037 293.8348 14.34215401149058"
"2.0","GENERATED VIA SPACE-TRACK.ORG API","2020-10-20T14:45:42","18 SPCS","COSMOS 1867","1987-060A","EARTH","TEME","UTC","SGP4","2020-10-19T06:53:18.478752","14.31115312","0.00149560","65.0117","54.1555","280.0382","79.9014","0","U","18187","999","73836","-0.00000035968000","-0.00000101","0.0000000000000","7166.142","100.620","798.724","777.289","PAYLOAD","LARGE","CIS","1987-07-10","TTMTR","","2857293","163864055","0 COSMOS 1867","1 18187U 87060A   20293.28701943 -.00000101 +00000-0 -35968-6 0  9997","2 18187 065.0117 054.1555 0014956 280.0382 079.9014 14.31115312738369"
"2.0","GENERATED VIA SPACE-TRACK.ORG API","2020-10-19T03:25:22","18 SPCS","IRIDIUM 153","2017-083J","EARTH","TEME","UTC","SGP4","2020-10-18T21:55:06.187584","14.34215399","0.00018330","86.3953","74.3609","67.2633","292.8756","0","U","43078","999","14897","0.00001949100000","0.00000074","0.0000000000000","7155.811","100.403","778.988","776.365","PAYLOAD","LARGE","US","2017-12-23","AFWTR","","2856318","163771698","0 IRIDIUM 153","1 43078U 17083J   20292.91326606 +.00000074 +00000-0 +19491-4 0  9998","2 43078 086.3953 074.3609 0001833 067.2633 292.8756 14.34215399148978"
"2.0","GENERATED VIA SPACE-TRACK.ORG API","2020-10-19T03:25:22","18 SPCS","COSMOS 1867","1987-060A","EARTH","TEME","UTC","SGP4","2020-10-18T20:49:32.434464","14.31115302","0.00149500","65.0116","55.3289","280.0285","79.9112","0","U","18187","999","73830","-0.00000287380000","-0.00000108","0.0000000000000","7166.142","100.620","798.720","777.293","PAYLOAD","LARGE","CIS","1987-07-10","TTMTR","","2856318","163759485","0 COSMOS 1867","1 18187U 87060A   20292.86773651 -.00000108 +00000-0 -28738-5 0  9998","2 18187 065.0116 055.3289 0014950 280.0285 079.9112 14.31115302738303"
"2.0","GENERATED VIA SPACE-TRACK.ORG API","2020-10-18T22:16:10","18 SPCS","COSMOS 1867","1987-060A","EARTH","TEME","UTC","SGP4","2020-10-18T19:08:54.760992","14.31115314","0.00149450","65.0116","55.5245","280.0225","79.9172","0","U","18187","999","73852","-0.00000173950000","-0.00000105","0.0000000000000","7166.142","100.620","798.717","777.297","PAYLOAD","LARGE","CIS","1987-07-10","TTMTR","","2856003","163747130","0 COSMOS 1867","1 18187U 87060A   20292.79785603 -.00000105  00000-0 -17395-5 0  9994","2 18187  65.0116  55.5245 0014945 280.0225  79.9172 14.31115314738528"
"2.0","GENERATED VIA SPACE-TRACK.ORG API","2020-10-18T22:16:10","18 SPCS","IRIDIUM 153","2017-083J","EARTH","TEME","UTC","SGP4","2020-10-18T18:34:10.173504","14.34215297","0.00018390","86.3953","74.4194","66.5208","293.6180","0","U","43078","999","14895","0.00000854170000","0.00000044","0.0000000000000","7155.812","100.403","778.993","776.361","PAYLOAD","LARGE","US","2017-12-23","AFWTR","","2855971","163747256","0 IRIDIUM 153","1 43078U 17083J   20292.77372886  .00000044  00000-0  85417-5 0  9992","2 43078  86.3953  74.4194 0001839  66.5208 293.6180 14.34215297148959"
"2.0","GENERATED VIA SPACE-TRACK.ORG API","2020-10-18T17:43:10","18 SPCS","COSMOS 1867","1987-060A","EARTH","TEME","UTC","SGP4","2020-10-18T14:07:01.737120","14.31115324","0.00149390","65.0115","56.1112","279.9902","79.9496","0","U","18187","999","73826","-0.00000272820000","-0.00000107","0.0000000000000","7166.142","100.620","798.712","777.301","PAYLOAD","LARGE","CIS","1987-07-10","TTMTR","","2855958","163731676","0 COSMOS 1867","1 18187U 87060A   20292.58821455 -.00000107 +00000-0 -27282-5 0  9995","2 18187 065.0115 056.1112 0014939 279.9902 079.9496 14.31115324738260"
"2.0","GENERATED VIA SPACE-TRACK.ORG API","2020-10-18T17:43:10","18 SPCS","IRIDIUM 153","2017-083J","EARTH","TEME","UTC","SGP4","2020-10-18T11:52:18.132384","14.34215310","0.00018530","86.3952","74.5359","66.9433","293.1958","0","U","43078","999","14891","0.00000729640000","0.00000040","0.0000000000000","7155.812","100.403","779.003","776.351","PAYLOAD","LARGE","US","2017-12-23","AFWTR","","2855958","163741943","0 IRIDIUM 153","1 43078U 17083J   20292.49465431 +.00000040 +00000-0 +72964-5 0  9999","2 43078 086.3952 074.5359 0001853 066.9433 293.1958 14.34215310148912"
"2.0","GENERATED VIA SPACE-TRACK.ORG API","2020-10-18T03:40:11","18 SPCS","COSMOS 1867","1987-060A","EARTH","TEME","UTC","SGP4","2020-10-17T19:40:07.331520","14.31115317","0.00149240","65.0114","58.2625","279.9611","79.9789","0","U","18187","999","73815","-0.00000320730000","-0.00000109","0.0000000000000","7166.142","100.620","798.701","777.312","PAYLOAD","LARGE","CIS","1987-07-10","TTMTR","","2855330","163693546","0 COSMOS 1867","1 18187U 87060A   20291.81952930 -.00000109 +00000-0 -32073-5 0  9999","2 18187 065.0114 058.2625 0014924 279.9611 079.9789 14.31115317738157"
"2.0","GENERATED VIA SPACE-TRACK.ORG API","2020-10-18T03:40:11","18 SPCS","IRIDIUM 153","2017-083J","EARTH","TEME","UTC","SGP4","2020-10-17T19:07:37.984224","14.34216688","0.00019390","86.3952","74.8280","66.3887","293.7512","0","U","43078","999","14881","0.00000754250000","0.00000041","0.0000000000000","7155.807","100.403","779.060","776.285","PAYLOAD","LARGE","US","2017-12-23","AFWTR","","2855330","163707240","0 IRIDIUM 153","1 43078U 17083J   20291.79696741 +.00000041 +00000-0 +75425-5 0  9997","2 43078 086.3952 074.8280 0001939 066.3887 293.7512 14.34216688148810"
"2.0","GENERATED VIA SPACE-TRACK.ORG API","2020-10-17T14:16:10","18 SPCS","COSMOS 1867","1987-060A","EARTH","TEME","UTC","SGP4","2020-10-17T11:16:58.963296","14.31115324","0.00149150","65.0113","59.2404","279.9273","80.0128","0","U","18187","999","73833","-0.00000370850000","-0.00000110","0.0000000000000","7166.142","100.620","798.695","777.318","PAYLOAD","LARGE","CIS","1987-07-10","TTMTR","","2854768","163655203","0 COSMOS 1867","1 18187U 87060A   20291.47012689 -.00000110  00000-0 -37085-5 0  9999","2 18187  65.0113  59.2404 0014915 279.9273  80.0128 14.31115324738334"
"2.0","GENERATED VIA SPACE-TRACK.ORG API","2020-10-17T14:16:10","18 SPCS","IRIDIUM 153","2017-083J","EARTH","TEME","UTC","SGP4","2020-10-17T10:45:17.962848","14.34216706","0.00019580","86.3952","74.9739","66.5985","293.5417","0","U","43078","999","14876","0.00000847170000","0.00000043","0.0000000000000","7155.807","100.403","779.073","776.271","PAYLOAD","LARGE","US","2017-12-23","AFWTR","","2854746","163654915","0 IRIDIUM 153","1 43078U 17083J   20291.44812457  .00000043  00000-0  84717-5 0  9999","2 43078  86.3952  74.9739 0001958  66.5985 293.5417 14.34216706148769"
"2.0","GENERATED VIA SPACE-TRACK.ORG API","2020-10-17T17:24:27","18 SPCS","IRIDIUM 153","2017-083J","EARTH","TEME","UTC","SGP4","2020-10-17T04:03:25.932096","14.34216852","0.00019590","86.3951","75.0906","66.1985","293.9416","0","U","43078","999","14872","0.00001724500000","0.00000068","0.0000000000000","7155.807","100.403","779.073","776.270","PAYLOAD","LARGE","US","2017-12-23","AFWTR","","2855076","163681161","0 IRIDIUM 153","1 43078U 17083J   20291.16905014 +.00000068 +00000-0 +17245-4 0  9998","2 43078 086.3951 075.0906 0001959 066.1985 293.9416 14.34216852148724"
"2.0","GENERATED VIA SPACE-TRACK.ORG API","2020-10-17T17:24:27","18 SPCS","COSMOS 1867","1987-060A","EARTH","TEME","UTC","SGP4","2020-10-17T01:13:12.926784","14.31115331","0.00149120","65.0112","60.4139","279.9269","80.0132","0","U","18187","999","73804","-0.00000022663000","-0.00000101","0.0000000000000","7166.142","100.620","798.693","777.320","PAYLOAD","LARGE","CIS","1987-07-10","TTMTR","","2855076","163670206","0 COSMOS 1867","1 18187U 87060A   20291.05084406 -.00000101 +00000-0 -22663-6 0  9996","2 18187 065.0112 060.4139 0014912 279.9269 080.0132 14.31115331738045"
